SL-16 R/B               
1 22803U 93059B   26114.84865199  .00000058  00000+0  52510-4 0  9994
2 22803  70.9892 273.7842 0015898 146.1727 214.0414 14.17238361686073
ARIANE 40 R/B           
1 22830U 93061H   26115.20533537  .00000167  00000+0  76945-4 0  9995
2 22830  98.4845 183.1565 0011576 142.0781 218.1221 14.32884157700767
COSMOS 2278             
1 23087U 94023A   26115.20456910  .00000221  00000+0  14013-3 0  9996
2 23087  71.0533  77.7767 0010454 308.5749  51.4436 14.14387059651380
SL-16 R/B               
1 23088U 94023B   26115.01797425 -.00000085  00000+0 -19309-4 0  9999
2 23088  71.0001 333.5953 0005188 242.9884 117.0709 14.15015322652644
SL-16 R/B               
1 23343U 94074B   26115.05419552  .00000326  00000+0  50256-4 0  9997
2 23343  97.7039 143.9792 0008027  74.6261 339.0254 14.79455349694107
SL-16 R/B               
1 23405U 94077B   26115.12285524  .00000100  00000+0  75638-4 0  9998
2 23405  70.9827 254.7979 0000451 124.7815 235.3350 14.15572156622806
ARIANE 40+ R/B          
1 23561U 95021B   26115.16858627  .00000230  00000+0  87210-4 0  9998
2 23561  98.4431 186.0043 0006765  13.8910  40.6827 14.39803076625939
SL-16 R/B               
1 23705U 95058B   26115.27342457 -.00000135  00000+0 -44484-4 0  9991
2 23705  71.0205  82.4512 0010916  39.7787 320.4135 14.15505115574444
SL-16 R/B               
1 24298U 96051B   26115.27039173  .00000095  00000+0  78281-4 0  9996
2 24298  70.7600  76.6436 0012495  67.3914 292.8526 14.12427653528228
ORBVIEW 2 (SEASTAR)     
1 24883U 97037A   26115.18743482  .00000249  00000+0  10264-3 0  9993
2 24883  98.8642 280.7500 0001108 291.8849  68.2218 14.35524899515140
SL-16 R/B               
1 25400U 98043G   26115.10940666  .00000049  00000+0  39551-4 0  9991
2 25400  98.8325  68.8245 0008896 236.8546 123.1780 14.26059688445606
SL-16 R/B               
1 25407U 98045B   26115.26147253 -.00000228  00000+0 -90992-4 0  9995
2 25407  71.0097  83.6325 0009280 303.9589  56.0651 14.16196926433690
ISS (ZARYA)             
1 25544U 98067A   26115.16771349  .00010683  00000+0  20209-3 0  9996
2 25544  51.6320 202.5215 0006920 348.0684  12.0139 15.48944607563532
CZ-4B R/B               
1 25732U 99025C   26115.08475329  .00000032  00000+0  36293-4 0  9998
2 25732  98.6536 158.2468 0036581 209.8910 204.0989 14.18273874394748
OKEAN-O                 
1 25860U 99039A   26115.15507785  .00000557  00000+0  79726-4 0  9995
2 25860  97.9358 174.5525 0001490 115.2457 244.8910 14.80401845441262
SL-16 R/B               
1 25861U 99039B   26115.15890325  .00000487  00000+0  68391-4 0  9999
2 25861  97.9878 174.1636 0016147 105.6157 254.6839 14.81789614443742
DELTA 2 R/B             
1 25876U 99041E   26115.30328578  .00000613  00000+0  13811-3 0  9998
2 25876  51.7597 115.0595 0502480 125.8853 238.9815 14.11928321369614
