[{"OBJECT_NAME":"SL-16 R/B","OBJECT_ID":"1993-059B","EPOCH":"2026-04-24T20:22:03.531936","MEAN_MOTION":14.17238361,"ECCENTRICITY":0.00158988,"INCLINATION":70.9892,"RA_OF_ASC_NODE":273.7842,"ARG_OF_PERICENTER":146.1727,"MEAN_ANOMALY":214.0414,"EPHEMERIS_TYPE":0,"CLASSIFICATION_TYPE":"U","NORAD_CAT_ID":22803,"ELEMENT_SET_NO":999,"REV_AT_EPOCH":68607,"BSTAR":5.2509711e-5,"MEAN_MOTION_DOT":5.8e-7,"MEAN_MOTION_DDOT":0},{"OBJECT_NAME":"ARIANE 40 R/B","OBJECT_ID":"1993-061H","EPOCH":"2026-04-25T04:55:40.975968","MEAN_MOTION":14.32884157,"ECCENTRICITY":0.0011576,"INCLINATION":98.4845,"RA_OF_ASC_NODE":183.1565,"ARG_OF_PERICENTER":142.0781,"MEAN_ANOMALY":218.1221,"EPHEMERIS_TYPE":0,"CLASSIFICATION_TYPE":"U","NORAD_CAT_ID":22830,"ELEMENT_SET_NO":999,"REV_AT_EPOCH":70076,"BSTAR":7.6944543e-5,"MEAN_MOTION_DOT":1.67e-6,"MEAN_MOTION_DDOT":0},{"OBJECT_NAME":"COSMOS 2278","OBJECT_ID":"1994-023A","EPOCH":"2026-04-25T04:54:34.770240","MEAN_MOTION":14.14387059,"ECCENTRICITY":0.00104548,"INCLINATION":71.0533,"RA_OF_ASC_NODE":77.7767,"ARG_OF_PERICENTER":308.5749,"MEAN_ANOMALY":51.4436,"EPHEMERIS_TYPE":0,"CLASSIFICATION_TYPE":"U","NORAD_CAT_ID":23087,"ELEMENT_SET_NO":999,"REV_AT_EPOCH":65138,"BSTAR":0.0001401301,"MEAN_MOTION_DOT":2.21e-6,"MEAN_MOTION_DDOT":0},{"OBJECT_NAME":"SL-16 R/B","OBJECT_ID":"1994-023B","EPOCH":"2026-04-25T00:25:52.975200","MEAN_MOTION":14.15015322,"ECCENTRICITY":0.00051888,"INCLINATION":71.0001,"RA_OF_ASC_NODE":333.5953,"ARG_OF_PERICENTER":242.9884,"MEAN_ANOMALY":117.0709,"EPHEMERIS_TYPE":0,"CLASSIFICATION_TYPE":"U","NORAD_CAT_ID":23088,"ELEMENT_SET_NO":999,"REV_AT_EPOCH":65264,"BSTAR":-1.9308532e-5,"MEAN_MOTION_DOT":-8.5e-7,"MEAN_MOTION_DDOT":0},{"OBJECT_NAME":"SL-16 R/B","OBJECT_ID":"1994-074B","EPOCH":"2026-04-25T01:18:02.492928","MEAN_MOTION":14.79455349,"ECCENTRICITY":0.00080276,"INCLINATION":97.7039,"RA_OF_ASC_NODE":143.9792,"ARG_OF_PERICENTER":74.6261,"MEAN_ANOMALY":339.0254,"EPHEMERIS_TYPE":0,"CLASSIFICATION_TYPE":"U","NORAD_CAT_ID":23343,"ELEMENT_SET_NO":999,"REV_AT_EPOCH":69410,"BSTAR":5.0255694e-5,"MEAN_MOTION_DOT":3.26e-6,"MEAN_MOTION_DDOT":0},{"OBJECT_NAME":"SL-16 R/B","OBJECT_ID":"1994-077B","EPOCH":"2026-04-25T02:56:54.692736","MEAN_MOTION":14.15572156,"ECCENTRICITY":4.512e-5,"INCLINATION":70.9827,"RA_OF_ASC_NODE":254.7979,"ARG_OF_PERICENTER":124.7815,"MEAN_ANOMALY":235.335,"EPHEMERIS_TYPE":0,"CLASSIFICATION_TYPE":"U","NORAD_CAT_ID":23405,"ELEMENT_SET_NO":999,"REV_AT_EPOCH":62280,"BSTAR":7.5638014e-5,"MEAN_MOTION_DOT":1.0e-6,"MEAN_MOTION_DDOT":0},{"OBJECT_NAME":"ARIANE 40+ R/B","OBJECT_ID":"1995-021B","EPOCH":"2026-04-25T04:02:45.853728","MEAN_MOTION":14.39803076,"ECCENTRICITY":0.00067654,"INCLINATION":98.4431,"RA_OF_ASC_NODE":186.0043,"ARG_OF_PERICENTER":13.891,"MEAN_ANOMALY":40.6827,"EPHEMERIS_TYPE":0,"CLASSIFICATION_TYPE":"U","NORAD_CAT_ID":23561,"ELEMENT_SET_NO":999,"REV_AT_EPOCH":62593,"BSTAR":8.7210356e-5,"MEAN_MOTION_DOT":2.3e-6,"MEAN_MOTION_DDOT":0},{"OBJECT_NAME":"SL-16 R/B","OBJECT_ID":"1995-058B","EPOCH":"2026-04-25T06:33:43.882848","MEAN_MOTION":14.15505115,"ECCENTRICITY":0.00109165,"INCLINATION":71.0205,"RA_OF_ASC_NODE":82.4512,"ARG_OF_PERICENTER":39.7787,"MEAN_ANOMALY":320.4135,"EPHEMERIS_TYPE":0,"CLASSIFICATION_TYPE":"U","NORAD_CAT_ID":23705,"ELEMENT_SET_NO":999,"REV_AT_EPOCH":57444,"BSTAR":-4.4483563e-5,"MEAN_MOTION_DOT":-1.35e-6,"MEAN_MOTION_DDOT":0},{"OBJECT_NAME":"SL-16 R/B","OBJECT_ID":"1996-051B","EPOCH":"2026-04-25T06:29:21.845472","MEAN_MOTION":14.12427653,"ECCENTRICITY":0.00124958,"INCLINATION":70.76,"RA_OF_ASC_NODE":76.6436,"ARG_OF_PERICENTER":67.3914,"MEAN_ANOMALY":292.8526,"EPHEMERIS_TYPE":0,"CLASSIFICATION_TYPE":"U","NORAD_CAT_ID":24298,"ELEMENT_SET_NO":999,"REV_AT_EPOCH":52822,"BSTAR":7.8280555e-5,"MEAN_MOTION_DOT":9.5e-7,"MEAN_MOTION_DDOT":0},{"OBJECT_NAME":"ORBVIEW 2 (SEASTAR)","OBJECT_ID":"1997-037A","EPOCH":"2026-04-25T04:29:54.368448","MEAN_MOTION":14.35524899,"ECCENTRICITY":0.00011081,"INCLINATION":98.8642,"RA_OF_ASC_NODE":280.75,"ARG_OF_PERICENTER":291.8849,"MEAN_ANOMALY":68.2218,"EPHEMERIS_TYPE":0,"CLASSIFICATION_TYPE":"U","NORAD_CAT_ID":24883,"ELEMENT_SET_NO":999,"REV_AT_EPOCH":51514,"BSTAR":0.00010264443,"MEAN_MOTION_DOT":2.49e-6,"MEAN_MOTION_DDOT":0},{"OBJECT_NAME":"SL-16 R/B","OBJECT_ID":"1998-043G","EPOCH":"2026-04-25T02:37:32.735424","MEAN_MOTION":14.26059688,"ECCENTRICITY":0.00088967,"INCLINATION":98.8325,"RA_OF_ASC_NODE":68.8245,"ARG_OF_PERICENTER":236.8546,"MEAN_ANOMALY":123.178,"EPHEMERIS_TYPE":0,"CLASSIFICATION_TYPE":"U","NORAD_CAT_ID":25400,"ELEMENT_SET_NO":999,"REV_AT_EPOCH":44560,"BSTAR":3.9550532e-5,"MEAN_MOTION_DOT":4.9e-7,"MEAN_MOTION_DDOT":0},{"OBJECT_NAME":"SL-16 R/B","OBJECT_ID":"1998-045B","EPOCH":"2026-04-25T06:16:31.226592","MEAN_MOTION":14.16196926,"ECCENTRICITY":0.00092807,"INCLINATION":71.0097,"RA_OF_ASC_NODE":83.6325,"ARG_OF_PERICENTER":303.9589,"MEAN_ANOMALY":56.0651,"EPHEMERIS_TYPE":0,"CLASSIFICATION_TYPE":"U","NORAD_CAT_ID":25407,"ELEMENT_SET_NO":999,"REV_AT_EPOCH":43369,"BSTAR":-9.0992167e-5,"MEAN_MOTION_DOT":-2.28e-6,"MEAN_MOTION_DDOT":0},{"OBJECT_NAME":"ISS (ZARYA)","OBJECT_ID":"1998-067A","EPOCH":"2026-04-25T04:01:30.445536","MEAN_MOTION":15.48944607,"ECCENTRICITY":0.00069208,"INCLINATION":51.632,"RA_OF_ASC_NODE":202.5215,"ARG_OF_PERICENTER":348.0684,"MEAN_ANOMALY":12.0139,"EPHEMERIS_TYPE":0,"CLASSIFICATION_TYPE":"U","NORAD_CAT_ID":25544,"ELEMENT_SET_NO":999,"REV_AT_EPOCH":56353,"BSTAR":0.00020209254,"MEAN_MOTION_DOT":0.00010683,"MEAN_MOTION_DDOT":0},{"OBJECT_NAME":"CZ-4B R/B","OBJECT_ID":"1999-025C","EPOCH":"2026-04-25T02:02:02.684256","MEAN_MOTION":14.18273874,"ECCENTRICITY":0.00365818,"INCLINATION":98.6536,"RA_OF_ASC_NODE":158.2468,"ARG_OF_PERICENTER":209.891,"MEAN_ANOMALY":204.0989,"EPHEMERIS_TYPE":0,"CLASSIFICATION_TYPE":"U","NORAD_CAT_ID":25732,"ELEMENT_SET_NO":999,"REV_AT_EPOCH":39474,"BSTAR":3.6292732e-5,"MEAN_MOTION_DOT":3.2e-7,"MEAN_MOTION_DDOT":0},{"OBJECT_NAME":"OKEAN-O","OBJECT_ID":"1999-039A","EPOCH":"2026-04-25T03:43:18.726240","MEAN_MOTION":14.80401845,"ECCENTRICITY":0.00014908,"INCLINATION":97.9358,"RA_OF_ASC_NODE":174.5525,"ARG_OF_PERICENTER":115.2457,"MEAN_ANOMALY":244.891,"EPHEMERIS_TYPE":0,"CLASSIFICATION_TYPE":"U","NORAD_CAT_ID":25860,"ELEMENT_SET_NO":999,"REV_AT_EPOCH":44126,"BSTAR":7.9726263e-5,"MEAN_MOTION_DOT":5.57e-6,"MEAN_MOTION_DDOT":0},{"OBJECT_NAME":"SL-16 R/B","OBJECT_ID":"1999-039B","EPOCH":"2026-04-25T03:48:49.240800","MEAN_MOTION":14.81789614,"ECCENTRICITY":0.00161475,"INCLINATION":97.9878,"RA_OF_ASC_NODE":174.1636,"ARG_OF_PERICENTER":105.6157,"MEAN_ANOMALY":254.6839,"EPHEMERIS_TYPE":0,"CLASSIFICATION_TYPE":"U","NORAD_CAT_ID":25861,"ELEMENT_SET_NO":999,"REV_AT_EPOCH":44374,"BSTAR":6.8390743e-5,"MEAN_MOTION_DOT":4.87e-6,"MEAN_MOTION_DDOT":0},{"OBJECT_NAME":"DELTA 2 R/B","OBJECT_ID":"1999-041E","EPOCH":"2026-04-25T07:16:43.891392","MEAN_MOTION":14.11928321,"ECCENTRICITY":0.05024808,"INCLINATION":51.7597,"RA_OF_ASC_NODE":115.0595,"ARG_OF_PERICENTER":125.8853,"MEAN_ANOMALY":238.9815,"EPHEMERIS_TYPE":0,"CLASSIFICATION_TYPE":"U","NORAD_CAT_ID":25876,"ELEMENT_SET_NO":999,"REV_AT_EPOCH":36961,"BSTAR":0.00013810705,"MEAN_MOTION_DOT":6.13e-6,"MEAN_MOTION_DDOT":0}]
